NORAD_CAT_ID,OBJECT_NAME,OBJECT_TYPE,EPOCH,MEAN_MOTION,ECCENTRICITY,INCLINATION,RA_OF_ASC_NODE,ARG_OF_PERICENTER,MEAN_ANOMALY,BSTAR,MEAN_MOTION_DOT,MEAN_MOTION_DDOT,TLE_LINE0,TLE_LINE1,TLE_LINE2,SEMIMAJOR_AXIS,PERIOD,APOGEE,PERIGEE,DECAYED
53714.0,STARLINK-4688,PAYLOAD,2023-05-28 05:02:38,15.08839261,0.0001263,53.2166,112.0508,91.5841,268.5296,1.5593e-06,-2.63e-06,0.0,0 STARLINK-4688,1 53714U 22107Q   23148.21016374 -.00000263  00000-0  15593-5 0  9994,2 53714  53.2166 112.0508 0001263  91.5841 268.5296 15.08839261 41301,6917.883,95.438,540.621,538.874,0.0
53714.0,STARLINK-4688,PAYLOAD,2023-05-28 20:56:29,15.08842504,0.0001286,53.217,109.0766,91.9321,268.1818,9.6083e-05,1.242e-05,0.0,0 STARLINK-4688,1 53714U 22107Q   23148.87255981  .00001242  00000-0  96083-4 0  9994,2 53714  53.2170 109.0766 0001286  91.9321 268.1818 15.08842504 40961,6917.873,95.437,540.627,538.848,0.0
53714.0,STARLINK-4688,PAYLOAD,2023-05-29 04:53:24,15.08845622,0.0001292,53.217,107.5899,91.3846,268.7294,0.00011732,1.58e-05,0.0,0 STARLINK-4688,1 53714U 22107Q   23149.20375672  .00001580  00000-0  11732-3 0  9994,2 53714  53.2170 107.5899 0001292  91.3846 268.7294 15.08845622 41457,6917.863,95.437,540.622,538.834,0.0
53714.0,STARLINK-4688,PAYLOAD,2023-05-30 03:08:49,15.08834655,0.0001414,53.2183,103.4266,84.6227,275.4926,3.6259e-05,2.89e-06,0.0,0 STARLINK-4688,1 53714U 22107Q   23150.13112846  .00000289  00000-0  36259-4 0  9997,2 53714  53.2183 103.4266 0001414  84.6227 275.4926 15.08834655 41156,6917.897,95.438,540.74,538.784,0.0
53714.0,STARLINK-4688,PAYLOAD,2023-05-30 20:38:03,15.08847665,0.0001494,53.2185,100.1538,102.7441,257.3719,2.152e-06,-2.54e-06,0.0,0 STARLINK-4688,1 53714U 22107Q   23150.85976115 -.00000254  00000-0  21520-5 0  9992,2 53714  53.2185 100.1538 0001494 102.7441 257.3719 15.08847665 41707,6917.857,95.437,540.755,538.688,0.0
53714.0,STARLINK-4688,PAYLOAD,2023-05-31 02:59:35,15.08854426,0.00012,53.217,98.9655,87.8812,272.2318,9.5119e-05,1.227e-05,0.0,0 STARLINK-4688,1 53714U 22107Q   23151.12471309  .00001227  00000-0  95119-4 0  9992,2 53714  53.2170  98.9655 0001200  87.8812 272.2318 15.08854426 41305,6917.836,95.437,540.531,538.871,0.0
53714.0,STARLINK-4688,PAYLOAD,2023-05-31 20:28:50,15.08841358,0.0001185,53.2155,95.698,70.169,289.943,9.4401e-05,1.215e-05,0.0,0 STARLINK-4688,1 53714U 22107Q   23151.85336111  .00001215  00000-0  94401-4 0  9993,2 53714  53.2155  95.6980 0001185  70.1690 289.9430 15.08841358 41854,6917.876,95.437,540.561,538.921,0.0
53714.0,STARLINK-4688,PAYLOAD,2023-06-01 02:50:22,15.08839154,0.0001347,53.2168,94.5018,98.5956,261.5189,0.00011511,1.544e-05,0.0,0 STARLINK-4688,1 53714U 22107Q   23152.11832032  .00001544  00000-0  11511-3 0  9991,2 53714  53.2168  94.5018 0001347  98.5956 261.5189 15.08839154 41451,6917.883,95.438,540.68,538.816,0.0
53714.0,STARLINK-4688,PAYLOAD,2023-06-01 06:01:09,15.08843197,0.0001211,53.2172,93.9103,91.3286,268.7845,8.7838e-05,1.11e-05,0.0,0 STARLINK-4688,1 53714U 22107Q   23152.25079875  .00001110  00000-0  87838-4 0  9999,2 53714  53.2172  93.9103 0001211  91.3286 268.7845 15.08843197 41912,6917.871,95.437,540.573,538.898,0.0
53714.0,STARLINK-4688,PAYLOAD,2023-06-02 02:41:10,15.08837106,0.0001153,53.2166,90.0462,83.4416,276.6707,-6.6978e-05,-1.354e-05,0.0,0 STARLINK-4688,1 53714U 22107Q   23153.11192903 -.00001354  00000-0 -66978-4 0  9997,2 53714  53.2166  90.0462 0001153  83.4416 276.6707 15.08837106 41607,6917.889,95.438,540.552,538.957,0.0
53714.0,STARLINK-4688,PAYLOAD,2023-06-02 20:10:25,15.08835024,0.0001172,53.2172,86.7747,91.5138,268.5988,5.1457e-05,5.31e-06,0.0,0 STARLINK-4688,1 53714U 22107Q   23153.84056867  .00000531  00000-0  51457-4 0  9995,2 53714  53.2172  86.7747 0001172  91.5138 268.5988 15.08835024 42153,6917.896,95.438,540.571,538.95,0.0
53714.0,STARLINK-4688,PAYLOAD,2023-06-03 02:31:57,15.08842699,0.0001155,53.2171,85.585,89.1527,270.9597,0.00010712,1.418e-05,0.0,0 STARLINK-4688,1 53714U 22107Q   23154.10552362  .00001418  00000-0  10712-3 0  9999,2 53714  53.2171  85.5850 0001155  89.1527 270.9597 15.08842699 41754,6917.872,95.437,540.536,538.938,0.0
53714.0,STARLINK-4688,PAYLOAD,2023-06-04 02:22:44,15.08838522,0.0001096,53.2169,81.125,89.6982,270.4136,0.00011972,1.618e-05,0.0,0 STARLINK-4688,1 53714U 22107Q   23155.09912954  .00001618  00000-0  11972-3 0  9996,2 53714  53.2169  81.1250 0001096  89.6982 270.4136 15.08838522 41902,6917.885,95.438,540.508,538.992,0.0
53714.0,STARLINK-4688,PAYLOAD,2023-06-05 03:48:54,15.0885536,0.0001082,53.2167,76.3669,87.1536,272.958,-6.2516e-05,-1.283e-05,0.0,0 STARLINK-4688,1 53714U 22107Q   23156.15896348 -.00001283  00000-0 -62516-4 0  9993,2 53714  53.2167  76.3669 0001082  87.1536 272.9580 15.08855360 42060,6917.833,95.437,540.447,538.95,0.0
53714.0,STARLINK-4688,PAYLOAD,2023-06-05 11:45:50,15.08843282,0.0001078,53.2172,74.8804,94.4326,265.6789,3.2424e-05,2.28e-06,0.0,0 STARLINK-4688,1 53714U 22107Q   23156.49016872  .00000228  00000-0  32424-4 0  9997,2 53714  53.2172  74.8804 0001078  94.4326 265.6789 15.08843282 42557,6917.87,95.437,540.481,538.99,0.0
53714.0,STARLINK-4688,PAYLOAD,2023-06-05 18:07:23,15.08840294,0.0001044,53.2172,73.6916,91.2431,268.8681,4.967e-05,5.03e-06,0.0,0 STARLINK-4688,1 53714U 22107Q   23156.75513113  .00000503  00000-0  49670-4 0  9993,2 53714  53.2172  73.6916 0001044  91.2431 268.8681 15.08840294 42593,6917.879,95.438,540.467,539.022,0.0
53714.0,STARLINK-4688,PAYLOAD,2023-06-06 03:39:41,15.08846877,0.000108,53.2178,71.9065,90.0741,270.0375,8.6484e-05,1.089e-05,0.0,0 STARLINK-4688,1 53714U 22107Q   23157.15256584  .00001089  00000-0  86484-4 0  9998,2 53714  53.2178  71.9065 0001080  90.0741 270.0375 15.08846877 42213,6917.859,95.437,540.471,538.977,0.0
53714.0,STARLINK-4688,PAYLOAD,2023-06-07 01:55:05,15.08843304,9.69e-05,53.2175,67.7417,92.5716,267.5387,3.3696e-05,2.49e-06,0.0,0 STARLINK-4688,1 53714U 22107Q   23158.07992835  .00000249  00000-0  33696-4 0  9990,2 53714  53.2175  67.7417 0000969  92.5716 267.5387 15.08843304 42359,6917.87,95.437,540.406,539.065,0.0
53714.0,STARLINK-4688,PAYLOAD,2023-06-07 03:30:28,15.08848509,9.74e-05,53.2172,67.4434,101.7458,258.3643,4.7573e-05,4.7e-06,0.0,0 STARLINK-4688,1 53714U 22107Q   23158.14616425  .00000470  00000-0  47573-4 0  9991,2 53714  53.2172  67.4434 0000974 101.7458 258.3643 15.08848509 42809,6917.854,95.437,540.393,539.046,0.0
53714.0,STARLINK-4688,PAYLOAD,2023-06-08 00:10:30,15.08830345,0.0001005,53.2177,63.5776,103.2718,256.8386,9.2699e-05,1.187e-05,0.0,0 STARLINK-4688,1 53714U 22107Q   23159.00729626  .00001187  00000-0  92699-4 0  9990,2 53714  53.2177  63.5776 0001005 103.2718 256.8386 15.08830345 42493,6917.91,95.438,540.47,539.08,0.0
53714.0,STARLINK-4688,PAYLOAD,2023-06-08 03:21:16,15.08841293,0.0001181,53.218,62.9836,97.323,262.7896,-6.8901e-06,-3.97e-06,0.0,0 STARLINK-4688,1 53714U 22107Q   23159.13977241 -.00000397  00000-0 -68901-5 0  9996,2 53714  53.2180  62.9836 0001181  97.3230 262.7896 15.08841293 42513,6917.876,95.437,540.558,538.924,0.0
53714.0,STARLINK-4688,PAYLOAD,2023-06-09 03:12:02,15.08848148,0.0001138,53.2181,58.5228,91.9353,268.177,5.0804e-05,5.21e-06,0.0,0 STARLINK-4688,1 53714U 22107Q   23160.13336705  .00000521  00000-0  50804-4 0  9991,2 53714  53.2181  58.5228 0001138  91.9353 268.1770 15.08848148 43101,6917.855,95.437,540.508,538.933,0.0
53714.0,STARLINK-4688,PAYLOAD,2023-06-10 03:02:50,15.08844137,0.0001012,53.2179,54.064,90.7615,269.3493,8.671e-05,1.093e-05,0.0,0 STARLINK-4688,1 53714U 22107Q   23161.12697045  .00001093  00000-0  86710-4 0  9998,2 53714  53.2179  54.0640 0001012  90.7615 269.3493 15.08844137 42812,6917.868,95.437,540.433,539.033,0.0
53714.0,STARLINK-4688,PAYLOAD,2023-06-10 09:24:23,15.08837168,9.95e-05,53.2181,52.8742,89.913,270.1976,1.3961e-05,-6.6e-07,0.0,0 STARLINK-4688,1 53714U 22107Q   23161.39193688 -.00000066  00000-0  13961-4 0  9999,2 53714  53.2181  52.8742 0000995  89.9130 270.1976 15.08837168 42851,6917.889,95.438,540.442,539.066,0.0
53714.0,STARLINK-4688,PAYLOAD,2023-06-11 09:15:10,15.08840458,0.0001011,53.2178,48.4158,90.2559,269.8549,-4.1733e-05,-9.52e-06,0.0,0 STARLINK-4688,1 53714U 22107Q   23162.38553799 -.00000952  00000-0 -41733-4 0  9995,2 53714  53.2178  48.4158 0001011  90.2559 269.8549 15.08840458 43442,6917.879,95.438,540.443,539.045,0.0
53714.0,STARLINK-4688,PAYLOAD,2023-06-11 18:47:29,15.08805852,0.0001097,53.2177,46.6321,96.765,263.3467,0.00038474,5.835e-05,0.0,0 STARLINK-4688,1 53714U 22107Q   23162.78298571  .00005835  00000-0  38474-3 0  9993,2 53714  53.2177  46.6321 0001097  96.7650 263.3467 15.08805852 43504,6917.985,95.44,540.609,539.091,0.0
53714.0,STARLINK-4688,PAYLOAD,2023-06-12 09:05:59,15.08818753,7.57e-05,53.2179,43.9541,124.6126,235.4938,-0.00015589,-2.766e-05,0.0,0 STARLINK-4688,1 53714U 22107Q   23163.37916421 -.00002766  00000-0 -15589-3 0  9994,2 53714  53.2179  43.9541 0000757 124.6126 235.4938 15.08818753 43159,6917.945,95.439,540.334,539.287,0.0
53714.0,STARLINK-4688,PAYLOAD,2023-06-13 00:59:50,15.0883528,8.82e-05,53.2178,40.9835,125.4728,234.6346,7.2285e-05,8.63e-06,0.0,0 STARLINK-4688,1 53714U 22107Q   23164.04155309  .00000863  00000-0  72285-4 0  9990,2 53714  53.2178  40.9835 0000882 125.4728 234.6346 15.08835280 43256,6917.895,95.438,540.37,539.15,0.0
53714.0,STARLINK-4688,PAYLOAD,2023-06-13 18:29:03,15.08847642,7.21e-05,53.2175,37.7108,128.5674,231.5383,0.00024873,3.674e-05,0.0,0 STARLINK-4688,1 53714U 22107Q   23164.77018010  .00003674  00000-0  24873-3 0  9999,2 53714  53.2175  37.7108 0000721 128.5674 231.5383 15.08847642 43360,6917.857,95.437,540.221,539.223,0.0
53714.0,STARLINK-4688,PAYLOAD,2023-06-13 21:39:48,15.08874792,4.84e-05,53.2176,37.1156,129.161,230.9425,-0.00011699,-2.151e-05,0.0,0 STARLINK-4688,1 53714U 22107Q   23164.90264676 -.00002151  00000-0 -11699-3 0  9998,2 53714  53.2176  37.1156 0000484 129.1610 230.9425 15.08874792 43828,6917.774,95.435,539.974,539.304,0.0
